STARLINK-31689          
1 59567U 24076D   26068.18335281 -.00002056  00000+0 -65235-4 0  9993
2 59567  42.9995   8.5445 0000602 278.6438  81.4346 15.27576900106469
LUR-1                   
1 60506U 24149AQ  26068.79566301  .00009121  00000+0  32985-3 0  9998
2 60506  97.3790 148.4255 0002777 309.1571  50.9421 15.28658648 86785
